1 27424U 02022A   10020.88265711  .00000054  00000-0  21969-4 0  5408
2 27424 098.2053 324.5712 0001066 116.9990 243.1351 14.57116116410467